Satellite: XW-2D
Catalog number: 40907
Epoch time: 17348.821844
Element set: 999
Inclination: 97.454300 deg
RA of node: 350.492400 deg
Eccentricity: 0.001326
Arg of perigee: 311.510800 deg
Mean anomaly: 48.498600 deg
Mean motion: 15.150538 rev/day
Decay rate: 8.400000e-06 rev/day^2
Epoch rev: 1235

Satellite: LILACSAT-2
Catalog number: 40908
Epoch time: 17348.811516
Element set: 999
Inclination: 97.464900 deg
RA of node: 350.069200 deg
Eccentricity: 0.001486
Arg of perigee: 310.910200 deg
Mean anomaly: 49.084200 deg
Mean motion: 15.133509 rev/day
Decay rate: 4.480000e-06 rev/day^2
Epoch rev: 1234

Satellite: XW-2F
Catalog number: 40910
Epoch time: 17348.841600
Element set: 999
Inclination: 97.455500 deg
RA of node: 351.496900 deg
Eccentricity: 0.001396
Arg of perigee: 307.611700 deg
Mean anomaly: 52.384800 deg
Mean motion: 15.161160 rev/day
Decay rate: 1.230000e-05 rev/day^2
Epoch rev: 1235

Satellite: XW-2B
Catalog number: 40911
Epoch time: 17348.832979
Element set: 999
Inclination: 97.458200 deg
RA of node: 350.966000 deg
Eccentricity: 0.001317
Arg of perigee: 311.965600 deg
Mean anomaly: 48.045300 deg
Mean motion: 15.150052 rev/day
Decay rate: 8.070000e-06 rev/day^2
Epoch rev: 1234

Satellite: DCBB
Catalog number: 40912
Epoch time: 17348.850291
Element set: 999
Inclination: 97.451300 deg
RA of node: 353.853400 deg
Eccentricity: 0.001407
Arg of perigee: 297.161400 deg
Mean anomaly: 184.700300 deg
Mean motion: 15.182836 rev/day
Decay rate: 1.287000e-05 rev/day^2
Epoch rev: 1236

Satellite: TW-1C
Catalog number: 40926
Epoch time: 17348.793719
Element set: 999
Inclination: 97.209400 deg
RA of node: 27.121800 deg
Eccentricity: 0.000926
Arg of perigee: 225.668900 deg
Mean anomaly: 224.764500 deg
Mean motion: 15.461407 rev/day
Decay rate: 8.591000e-05 rev/day^2
Epoch rev: 1247

Satellite: TW-1A
Catalog number: 40928
Epoch time: 17348.774630
Element set: 999
Inclination: 97.209000 deg
RA of node: 21.310200 deg
Eccentricity: 0.001033
Arg of perigee: 268.039900 deg
Mean anomaly: 181.812400 deg
Mean motion: 15.375898 rev/day
Decay rate: 2.763000e-05 rev/day^2
Epoch rev: 1244

Satellite: IO-86
Catalog number: 40931
Epoch time: 17348.727920
Element set: 999
Inclination: 6.000800 deg
RA of node: 25.411500 deg
Eccentricity: 0.001324
Arg of perigee: 281.341200 deg
Mean anomaly: 78.509000 deg
Mean motion: 14.765593 rev/day
Decay rate: 8.050000e-06 rev/day^2
Epoch rev: 1196

Satellite: LQSat
Catalog number: 40958
Epoch time: 17348.806824
Element set: 999
Inclination: 97.962000 deg
RA of node: 60.811200 deg
Eccentricity: 0.001748
Arg of perigee: 203.674500 deg
Mean anomaly: 156.366000 deg
Mean motion: 14.730067 rev/day
Decay rate: 3.600000e-07 rev/day^2
Epoch rev: 1177

Satellite: AO-85
Catalog number: 40967
Epoch time: 17348.390155
Element set: 180
Inclination: 64.778500 deg
RA of node: 32.178300 deg
Eccentricity: 0.018636
Arg of perigee: 13.265400 deg
Mean anomaly: 347.323700 deg
Mean motion: 14.755897 rev/day
Decay rate: 9.300000e-07 rev/day^2
Epoch rev: 263

Satellite: ATHENOXAT-1
Catalog number: 41168
Epoch time: 17348.117442
Element set: 999
Inclination: 14.986900 deg
RA of node: 294.352700 deg
Eccentricity: 0.001169
Arg of perigee: 352.269300 deg
Mean anomaly: 111.833800 deg
Mean motion: 15.122880 rev/day
Decay rate: 2.106000e-05 rev/day^2
Epoch rev: 1103

Satellite: ChubuSat-2
Catalog number: 41338
Epoch time: 17348.511662
Element set: 999
Inclination: 31.004500 deg
RA of node: 46.889700 deg
Eccentricity: 0.001389
Arg of perigee: 44.377000 deg
Mean anomaly: 315.797700 deg
Mean motion: 14.998876 rev/day
Decay rate: 3.760000e-06 rev/day^2
Epoch rev: 1000

Satellite: ChubuSat-3
Catalog number: 41339
Epoch time: 17348.815046
Element set: 999
Inclination: 31.009500 deg
RA of node: 43.827300 deg
Eccentricity: 0.001364
Arg of perigee: 54.146200 deg
Mean anomaly: 306.042500 deg
Mean motion: 15.000816 rev/day
Decay rate: 3.360000e-06 rev/day^2
Epoch rev: 1001

Satellite: Horyu-4
Catalog number: 41340
Epoch time: 17348.505365
Element set: 999
Inclination: 31.006400 deg
RA of node: 41.992100 deg
Eccentricity: 0.001417
Arg of perigee: 61.519600 deg
Mean anomaly: 298.686500 deg
Mean motion: 15.008323 rev/day
Decay rate: 5.630000e-06 rev/day^2
Epoch rev: 1001

Satellite: OUFTI-1
Catalog number: 41458
Epoch time: 17348.793397
Element set: 999
Inclination: 98.164200 deg
RA of node: 36.607400 deg
Eccentricity: 0.017297
Arg of perigee: 46.195000 deg
Mean anomaly: 315.341600 deg
Mean motion: 15.040508 rev/day
Decay rate: 1.725000e-05 rev/day^2
Epoch rev: 8971

Satellite: e-st@r-II
Catalog number: 41459
Epoch time: 17348.836772
Element set: 999
Inclination: 98.162800 deg
RA of node: 36.559000 deg
Eccentricity: 0.017360
Arg of perigee: 46.308000 deg
Mean anomaly: 315.237300 deg
Mean motion: 15.038185 rev/day
Decay rate: 8.270000e-06 rev/day^2
Epoch rev: 8971

Satellite: AAUSAT4
Catalog number: 41460
Epoch time: 17348.710670
Element set: 999
Inclination: 98.157500 deg
RA of node: 36.674700 deg
Eccentricity: 0.016528
Arg of perigee: 44.204400 deg
Mean anomaly: 317.223300 deg
Mean motion: 15.050269 rev/day
Decay rate: 1.858000e-05 rev/day^2
Epoch rev: 8973

Satellite: LO-87
Catalog number: 41557
Epoch time: 17348.764658
Element set: 999
Inclination: 97.451400 deg
RA of node: 68.237200 deg
Eccentricity: 0.001561
Arg of perigee: 90.191500 deg
Mean anomaly: 270.111400 deg
Mean motion: 15.278184 rev/day
Decay rate: 1.530000e-05 rev/day^2
Epoch rev: 8599

Satellite: NuSat2
Catalog number: 41558
Epoch time: 17348.817641
Element set: 999
Inclination: 97.454100 deg
RA of node: 68.363400 deg
Eccentricity: 0.001505
Arg of perigee: 88.984300 deg
Mean anomaly: 271.312100 deg
Mean motion: 15.276476 rev/day
Decay rate: 1.561000e-05 rev/day^2
Epoch rev: 8599

Satellite: Lapan A3
Catalog number: 41603
Epoch time: 17348.825306
Element set: 999
Inclination: 97.439100 deg
RA of node: 48.420500 deg
Eccentricity: 0.001379
Arg of perigee: 157.267900 deg
Mean anomaly: 315.329400 deg
Mean motion: 15.194822 rev/day
Decay rate: 2.820000e-06 rev/day^2
Epoch rev: 8208

Satellite: Swayam
Catalog number: 41607
Epoch time: 17348.435800
Element set: 999
Inclination: 97.439500 deg
RA of node: 48.804800 deg
Eccentricity: 0.001459
Arg of perigee: 160.157100 deg
Mean anomaly: 200.023600 deg
Mean motion: 15.216352 rev/day
Decay rate: 1.811000e-05 rev/day^2
Epoch rev: 820

