XW-2D
1 40907U 15049J   17348.82184358  .00000840  00000-0  48368-4 0  9996
2 40907  97.4543 350.4924 0013260 311.5108  48.4986 15.15053761123584
LILACSAT-2
1 40908U 15049K   17348.81151584  .00000448  00000-0  28753-4 0  9991
2 40908  97.4649 350.0692 0014864 310.9102  49.0842 15.13350875123489
XW-2F
1 40910U 15049M   17348.84160039  .00001230  00000-0  67176-4 0  9994
2 40910  97.4555 351.4969 0013961 307.6117  52.3848 15.16116003123519
XW-2B
1 40911U 15049N   17348.83297870  .00000807  00000-0  46667-4 0  9999
2 40911  97.4582 350.9660 0013167 311.9656  48.0453 15.15005248123483
DCBB
1 40912U 15049P   17348.85029086  .00001287  00000-0  65992-4 0  9999
2 40912  97.4513 353.8534 0014071 297.1614 184.7003 15.18283622123693
TW-1C
1 40926U 15051B   17348.79371890  .00008591  00000-0  17684-3 0  9992
2 40926  97.2094  27.1218 0009260 225.6689 224.7645 15.46140691124790
TW-1A
1 40928U 15051D   17348.77463002  .00002763  00000-0  76979-4 0  9997
2 40928  97.2090  21.3102 0010333 268.0399 181.8124 15.37589762124430
IO-86
1 40931U 15052B   17348.72791956  .00000805  00000-0  23155-4 0  9992
2 40931   6.0008  25.4115 0013240 281.3412  78.5090 14.76559274119697
LQSat
1 40958U 15057A   17348.80682407  .00000036  00000-0  13426-4 0  9991
2 40958  97.9620  60.8112 0017482 203.6745 156.3660 14.73006658117701
AO-85
1 40967U 15058D   17348.39015488  .00000093  00000-0  29313-4 0 01802
2 40967 064.7785 032.1783 0186357 013.2654 347.3237 14.75589719026384
ATHENOXAT-1
1 41168U 15077C   17348.11744167  .00002106  00000-0  79945-4 0  9991
2 41168  14.9869 294.3527 0011695 352.2693 111.8338 15.12288001110312
ChubuSat-2
1 41338U 16012B   17348.51166213  .00000376  00000-0  22808-4 0  9997
2 41338 031.0045 046.8897 0013895 044.3770 315.7977 14.99887640100081
ChubuSat-3
1 41339U 16012C   17348.81504634  .00000336  00000-0  19498-4 0  9991
2 41339  31.0095  43.8273 0013637  54.1462 306.0425 15.00081612100116
Horyu-4
1 41340U 16012D   17348.50536506  .00000563  00000-0  36496-4 0  9991
2 41340 031.0064 041.9921 0014167 061.5196 298.6865 15.00832302100123
OUFTI-1
1 41458U 16025C   17348.79339717  .00001725  00000-0  93998-4 0  9992
2 41458  98.1642  36.6074 0172972  46.1950 315.3416 15.04050812 89717
e-st@r-II
1 41459U 16025D   17348.83677187  .00000827  00000-0  47716-4 0  9993
2 41459  98.1628  36.5590 0173598  46.3080 315.2373 15.03818470 89717
AAUSAT4
1 41460U 16025E   17348.71066972  .00001858  00000-0  10084-3 0  9998
2 41460  98.1575  36.6747 0165276  44.2044 317.2233 15.05026933 89732
LO-87
1 41557U 16033B   17348.76465828  .00001530  00000-0  58936-4 0  9998
2 41557  97.4514  68.2372 0015614  90.1915 270.1114 15.27818388 85992
NuSat2
1 41558U 16033C   17348.81764092  .00001561  00000-0  60395-4 0  9996
2 41558  97.4541  68.3634 0015055  88.9843 271.3121 15.27647648 85999
Lapan A3
1 41603U 16040E   17348.82530645  .00000282  00000-0  16506-4 0  9995
2 41603  97.4391  48.4205 0013794 157.2679 315.3294 15.19482151 82085
Swayam
1 41607U 16040J   17348.43580023  .00001811  00000-0  83068-4 0  9997
2 41607 097.4395 048.8048 0014587 160.1571 200.0236 15.21635211082005
